ATLAS CENTAUR 2         
1 00694U 63047A   26087.34971800  .00002398  00000+0  27871-3 0  9993
2 00694  30.3573  91.3523 0547437 244.7532 109.5367 14.12140179134269
THOR AGENA D R/B        
1 00733U 64002A   26087.57026462  .00000204  00000+0  90136-4 0  9998
2 00733  99.1215 101.9366 0032549 201.8827 158.0968 14.34029853241002
SL-8 R/B                
1 02802U 67045B   26087.60548814  .00000295  00000+0  89292-4 0  9992
2 02802  74.0111 312.7643 0064867 314.8362  44.7534 14.45637295 91757
SL-8 R/B                
1 03230U 68040B   26087.60930740  .00003822  00000+0  28252-3 0  9994
2 03230  74.0292 275.0291 0023270  91.3129 269.0725 15.03381431 92853
OAO 2                   
1 03597U 68110A   26087.54762500  .00000229  00000+0  66760-4 0  9993
2 03597  34.9924 159.9317 0005759 343.2792  16.7709 14.47318107 21838
ISIS 1                  
1 03669U 69009A   26087.57053492  .00000121  00000+0  72318-4 0  9994
2 03669  88.4508 153.2481 1707845  51.0756 323.0522 11.30418968350667
SERT 2                  
1 04327U 70009A   26087.57237618 -.00000004  00000+0  51661-4 0  9991
2 04327  99.2783  29.6351 0005622 112.1052  61.0100 13.58731533782452
SL-3 R/B                
1 05118U 71028B   26087.55499146  .00048370  00000+0  53293-3 0  9995
2 05118  81.2366  28.7016 0014380 206.9404 153.1105 15.62783810991611
ASTEX 1                 
1 05560U 71089A   26087.58295605  .00000443  00000+0  11271-3 0  9999
2 05560  92.7093 157.8662 0016440  28.8276 331.3835 14.50788457865049
SL-8 R/B                
1 05730U 71119B   26087.57981043  .00007484  00000+0  39205-3 0  9998
2 05730  73.8857 140.4016 0546513 103.0350 263.2379 14.38220303658206
OAO 3 (COPERNICUS)      
1 06153U 72065A   26087.40476527  .00000355  00000+0  77227-4 0  9994
2 06153  35.0049 190.6853 0007162 310.6430 106.4332 14.60012591848933
ATLAS CENTAUR R/B       
1 06155U 72065B   26087.61174261  .00001417  00000+0  19582-3 0  9998
2 06155  35.0008 194.8574 0033361 170.5205 189.6131 14.77739665844065
SL-8 R/B                
1 08459U 75112B   26087.42313266  .00000227  00000+0  83278-4 0  9994
2 08459  74.0629 344.4541 0014546  69.9467 290.3251 14.38214358634567
SL-3 R/B                
1 10114U 77057B   26087.55692803  .00015771  00000+0  32449-3 0  9999
2 10114  97.5795 260.3189 0006743 205.9683 154.1229 15.46023240671244
SEASAT 1                
1 10967U 78064A   26087.44920454  .00000273  00000+0  11465-3 0  9994
2 10967 108.0076 164.8616 0002640 276.5279  83.5566 14.46175412509225
SL-14 R/B               
1 11267U 79011B   26087.42697338  .00000752  00000+0  71729-4 0  9993
2 11267  82.5209  78.7850 0015987   0.9771 359.1477 14.91931784531578
