[{"OBJECT_NAME":"ATLAS CENTAUR 2","OBJECT_ID":"1963-047A","EPOCH":"2026-03-28T08:23:35.635200","MEAN_MOTION":14.12140179,"ECCENTRICITY":0.05474375,"INCLINATION":30.3573,"RA_OF_ASC_NODE":91.3523,"ARG_OF_PERICENTER":244.7532,"MEAN_ANOMALY":109.5367,"EPHEMERIS_TYPE":0,"CLASSIFICATION_TYPE":"U","NORAD_CAT_ID":694,"ELEMENT_SET_NO":999,"REV_AT_EPOCH":13426,"BSTAR":0.00027870784,"MEAN_MOTION_DOT":2.398e-5,"MEAN_MOTION_DDOT":0},{"OBJECT_NAME":"THOR AGENA D R/B","OBJECT_ID":"1964-002A","EPOCH":"2026-03-28T13:41:10.863168","MEAN_MOTION":14.34029853,"ECCENTRICITY":0.0032549,"INCLINATION":99.1215,"RA_OF_ASC_NODE":101.9366,"ARG_OF_PERICENTER":201.8827,"MEAN_ANOMALY":158.0968,"EPHEMERIS_TYPE":0,"CLASSIFICATION_TYPE":"U","NORAD_CAT_ID":733,"ELEMENT_SET_NO":999,"REV_AT_EPOCH":24100,"BSTAR":9.013614e-5,"MEAN_MOTION_DOT":2.04e-6,"MEAN_MOTION_DDOT":0},{"OBJECT_NAME":"SL-8 R/B","OBJECT_ID":"1967-045B","EPOCH":"2026-03-28T14:31:54.175296","MEAN_MOTION":14.45637295,"ECCENTRICITY":0.0064867,"INCLINATION":74.0111,"RA_OF_ASC_NODE":312.7643,"ARG_OF_PERICENTER":314.8362,"MEAN_ANOMALY":44.7534,"EPHEMERIS_TYPE":0,"CLASSIFICATION_TYPE":"U","NORAD_CAT_ID":2802,"ELEMENT_SET_NO":999,"REV_AT_EPOCH":9175,"BSTAR":8.9291768e-5,"MEAN_MOTION_DOT":2.95e-6,"MEAN_MOTION_DDOT":0},{"OBJECT_NAME":"SL-8 R/B","OBJECT_ID":"1968-040B","EPOCH":"2026-03-28T14:37:24.159360","MEAN_MOTION":15.03381431,"ECCENTRICITY":0.00232705,"INCLINATION":74.0292,"RA_OF_ASC_NODE":275.0291,"ARG_OF_PERICENTER":91.3129,"MEAN_ANOMALY":269.0725,"EPHEMERIS_TYPE":0,"CLASSIFICATION_TYPE":"U","NORAD_CAT_ID":3230,"ELEMENT_SET_NO":999,"REV_AT_EPOCH":9285,"BSTAR":0.00028251965,"MEAN_MOTION_DOT":3.822e-5,"MEAN_MOTION_DDOT":0},{"OBJECT_NAME":"OAO 2","OBJECT_ID":"1968-110A","EPOCH":"2026-03-28T13:08:34.800000","MEAN_MOTION":14.47318107,"ECCENTRICITY":0.00057591,"INCLINATION":34.9924,"RA_OF_ASC_NODE":159.9317,"ARG_OF_PERICENTER":343.2792,"MEAN_ANOMALY":16.7709,"EPHEMERIS_TYPE":0,"CLASSIFICATION_TYPE":"U","NORAD_CAT_ID":3597,"ELEMENT_SET_NO":999,"REV_AT_EPOCH":2183,"BSTAR":6.6759713e-5,"MEAN_MOTION_DOT":2.29e-6,"MEAN_MOTION_DDOT":0},{"OBJECT_NAME":"ISIS 1","OBJECT_ID":"1969-009A","EPOCH":"2026-03-28T13:41:34.217088","MEAN_MOTION":11.30418968,"ECCENTRICITY":0.17078455,"INCLINATION":88.4508,"RA_OF_ASC_NODE":153.2481,"ARG_OF_PERICENTER":51.0756,"MEAN_ANOMALY":323.0522,"EPHEMERIS_TYPE":0,"CLASSIFICATION_TYPE":"U","NORAD_CAT_ID":3669,"ELEMENT_SET_NO":999,"REV_AT_EPOCH":35066,"BSTAR":7.231849e-5,"MEAN_MOTION_DOT":1.21e-6,"MEAN_MOTION_DDOT":0},{"OBJECT_NAME":"SERT 2","OBJECT_ID":"1970-009A","EPOCH":"2026-03-28T13:44:13.301952","MEAN_MOTION":13.58731533,"ECCENTRICITY":0.00056223,"INCLINATION":99.2783,"RA_OF_ASC_NODE":29.6351,"ARG_OF_PERICENTER":112.1052,"MEAN_ANOMALY":61.01,"EPHEMERIS_TYPE":0,"CLASSIFICATION_TYPE":"U","NORAD_CAT_ID":4327,"ELEMENT_SET_NO":999,"REV_AT_EPOCH":78245,"BSTAR":5.1660963e-5,"MEAN_MOTION_DOT":-4.0e-8,"MEAN_MOTION_DDOT":0},{"OBJECT_NAME":"SL-3 R/B","OBJECT_ID":"1971-028B","EPOCH":"2026-03-28T13:19:11.262144","MEAN_MOTION":15.6278381,"ECCENTRICITY":0.00143809,"INCLINATION":81.2366,"RA_OF_ASC_NODE":28.7016,"ARG_OF_PERICENTER":206.9404,"MEAN_ANOMALY":153.1105,"EPHEMERIS_TYPE":0,"CLASSIFICATION_TYPE":"U","NORAD_CAT_ID":5118,"ELEMENT_SET_NO":999,"REV_AT_EPOCH":99161,"BSTAR":0.00053292613,"MEAN_MOTION_DOT":0.0004837,"MEAN_MOTION_DDOT":0},{"OBJECT_NAME":"ASTEX 1","OBJECT_ID":"1971-089A","EPOCH":"2026-03-28T13:59:27.402720","MEAN_MOTION":14.50788457,"ECCENTRICITY":0.00164408,"INCLINATION":92.7093,"RA_OF_ASC_NODE":157.8662,"ARG_OF_PERICENTER":28.8276,"MEAN_ANOMALY":331.3835,"EPHEMERIS_TYPE":0,"CLASSIFICATION_TYPE":"U","NORAD_CAT_ID":5560,"ELEMENT_SET_NO":999,"REV_AT_EPOCH":86504,"BSTAR":0.00011270847,"MEAN_MOTION_DOT":4.43e-6,"MEAN_MOTION_DDOT":0},{"OBJECT_NAME":"SL-8 R/B","OBJECT_ID":"1971-119B","EPOCH":"2026-03-28T13:54:55.621152","MEAN_MOTION":14.38220303,"ECCENTRICITY":0.05465133,"INCLINATION":73.8857,"RA_OF_ASC_NODE":140.4016,"ARG_OF_PERICENTER":103.035,"MEAN_ANOMALY":263.2379,"EPHEMERIS_TYPE":0,"CLASSIFICATION_TYPE":"U","NORAD_CAT_ID":5730,"ELEMENT_SET_NO":999,"REV_AT_EPOCH":65820,"BSTAR":0.00039204541,"MEAN_MOTION_DOT":7.484e-5,"MEAN_MOTION_DDOT":0},{"OBJECT_NAME":"OAO 3 (COPERNICUS)","OBJECT_ID":"1972-065A","EPOCH":"2026-03-28T09:42:51.719328","MEAN_MOTION":14.60012591,"ECCENTRICITY":0.00071626,"INCLINATION":35.0049,"RA_OF_ASC_NODE":190.6853,"ARG_OF_PERICENTER":310.643,"MEAN_ANOMALY":106.4332,"EPHEMERIS_TYPE":0,"CLASSIFICATION_TYPE":"U","NORAD_CAT_ID":6153,"ELEMENT_SET_NO":999,"REV_AT_EPOCH":84893,"BSTAR":7.7227419e-5,"MEAN_MOTION_DOT":3.55e-6,"MEAN_MOTION_DDOT":0},{"OBJECT_NAME":"ATLAS CENTAUR R/B","OBJECT_ID":"1972-065B","EPOCH":"2026-03-28T14:40:54.561504","MEAN_MOTION":14.77739665,"ECCENTRICITY":0.00333617,"INCLINATION":35.0008,"RA_OF_ASC_NODE":194.8574,"ARG_OF_PERICENTER":170.5205,"MEAN_ANOMALY":189.6131,"EPHEMERIS_TYPE":0,"CLASSIFICATION_TYPE":"U","NORAD_CAT_ID":6155,"ELEMENT_SET_NO":999,"REV_AT_EPOCH":84406,"BSTAR":0.00019581853,"MEAN_MOTION_DOT":1.417e-5,"MEAN_MOTION_DDOT":0},{"OBJECT_NAME":"SL-8 R/B","OBJECT_ID":"1975-112B","EPOCH":"2026-03-28T10:09:18.661824","MEAN_MOTION":14.38214358,"ECCENTRICITY":0.00145466,"INCLINATION":74.0629,"RA_OF_ASC_NODE":344.4541,"ARG_OF_PERICENTER":69.9467,"MEAN_ANOMALY":290.3251,"EPHEMERIS_TYPE":0,"CLASSIFICATION_TYPE":"U","NORAD_CAT_ID":8459,"ELEMENT_SET_NO":999,"REV_AT_EPOCH":63456,"BSTAR":8.3277504e-5,"MEAN_MOTION_DOT":2.27e-6,"MEAN_MOTION_DDOT":0},{"OBJECT_NAME":"SL-3 R/B","OBJECT_ID":"1977-057B","EPOCH":"2026-03-28T13:21:58.581792","MEAN_MOTION":15.4602324,"ECCENTRICITY":0.00067435,"INCLINATION":97.5795,"RA_OF_ASC_NODE":260.3189,"ARG_OF_PERICENTER":205.9683,"MEAN_ANOMALY":154.1229,"EPHEMERIS_TYPE":0,"CLASSIFICATION_TYPE":"U","NORAD_CAT_ID":10114,"ELEMENT_SET_NO":999,"REV_AT_EPOCH":67124,"BSTAR":0.00032449436,"MEAN_MOTION_DOT":0.00015771,"MEAN_MOTION_DDOT":0},{"OBJECT_NAME":"SEASAT 1","OBJECT_ID":"1978-064A","EPOCH":"2026-03-28T10:46:51.272256","MEAN_MOTION":14.46175412,"ECCENTRICITY":0.00026408,"INCLINATION":108.0076,"RA_OF_ASC_NODE":164.8616,"ARG_OF_PERICENTER":276.5279,"MEAN_ANOMALY":83.5566,"EPHEMERIS_TYPE":0,"CLASSIFICATION_TYPE":"U","NORAD_CAT_ID":10967,"ELEMENT_SET_NO":999,"REV_AT_EPOCH":50922,"BSTAR":0.00011465147,"MEAN_MOTION_DOT":2.73e-6,"MEAN_MOTION_DDOT":0},{"OBJECT_NAME":"SL-14 R/B","OBJECT_ID":"1979-011B","EPOCH":"2026-03-28T10:14:50.500032","MEAN_MOTION":14.91931784,"ECCENTRICITY":0.00159873,"INCLINATION":82.5209,"RA_OF_ASC_NODE":78.785,"ARG_OF_PERICENTER":0.9771,"MEAN_ANOMALY":359.1477,"EPHEMERIS_TYPE":0,"CLASSIFICATION_TYPE":"U","NORAD_CAT_ID":11267,"ELEMENT_SET_NO":999,"REV_AT_EPOCH":53157,"BSTAR":7.1729173e-5,"MEAN_MOTION_DOT":7.52e-6,"MEAN_MOTION_DDOT":0}]
